[{"OBJECT_NAME":"STARLINK-3904","OBJECT_ID":"2022-049P","EPOCH":"2026-03-09T05:00:30.737376","MEAN_MOTION":15.08836543,"ECCENTRICITY":0.00012033,"INCLINATION":53.2173,"RA_OF_ASC_NODE":61.2803,"ARG_OF_PERICENTER":88.8475,"MEAN_ANOMALY":271.2655,"EPHEMERIS_TYPE":0,"CLASSIFICATION_TYPE":"U","NORAD_CAT_ID":52464,"ELEMENT_SET_NO":999,"REV_AT_EPOCH":21217,"BSTAR":7.757502e-6,"MEAN_MOTION_DOT":-1.64e-6,"MEAN_MOTION_DDOT":0},{"OBJECT_NAME":"UNISAT-5","OBJECT_ID":"2013-066F","EPOCH":"2026-03-09T22:02:55.134816","MEAN_MOTION":15.04155626,"ECCENTRICITY":0.00317175,"INCLINATION":97.6976,"RA_OF_ASC_NODE":39.5171,"ARG_OF_PERICENTER":68.1555,"MEAN_ANOMALY":292.3039,"EPHEMERIS_TYPE":0,"CLASSIFICATION_TYPE":"U","NORAD_CAT_ID":39421,"ELEMENT_SET_NO":999,"REV_AT_EPOCH":66774,"BSTAR":0.0004680489,"MEAN_MOTION_DOT":6.504e-5,"MEAN_MOTION_DDOT":0}]
